IRIDIUM 150             
1 43257U 18030J   25195.74758469  .00000032  00000+0  43388-5 0  9990
2 43257  86.3939  71.5401 0001888  84.9207 275.2204 14.34217875381796
IRIDIUM 143             
1 43258U 18030K   25195.72855636  .00000018  00000+0 -73255-6 0  9995
2 43258  86.3942  71.6273 0001550  86.2240 273.9133 14.34217737381723
IRIDIUM 161             
1 43478U 18047C   25196.15178672  .00000242  00000+0  66024-4 0  9995
2 43478  86.4475 229.2504 0002619  90.1168 270.0333 14.43279232376527
IRIDIUM 152             
1 43479U 18047D   25195.63150774  .00000006  00000+0 -48046-5 0  9995
2 43479  86.3954 229.3285 0002304  89.1459 271.0001 14.34217585374106
IRIDIUM 147             
1 43480U 18047E   25196.54484121  .00000011  00000+0 -31585-5 0  9990
2 43480  86.3951 228.9460 0002412  94.1488 265.9983 14.34217693374238
IRIDIUM 110             
1 43481U 18047F   25195.71396034  .00000144  00000+0  44421-4 0  9992
2 43481  86.3954 229.3763 0002824  89.9538 270.1981 14.34219010374105
IRIDIUM 162             
1 43482U 18047G   25196.14548270  .00000247  00000+0  67303-4 0  9990
2 43482  86.4475 229.1481 0002630  86.5703 273.5798 14.43277953376512
IRIDIUM 160             
1 43569U 18061A   25196.07840809 -.00000028  00000+0 -17011-4 0  9997
2 43569  86.3989 197.6330 0002426  88.4840 271.6633 14.34217544365059
